NORAD_CAT_ID,OBJECT_NAME,OBJECT_TYPE,EPOCH,MEAN_MOTION,ECCENTRICITY,INCLINATION,RA_OF_ASC_NODE,ARG_OF_PERICENTER,MEAN_ANOMALY,BSTAR,MEAN_MOTION_DOT,MEAN_MOTION_DDOT,TLE_LINE0,TLE_LINE1,TLE_LINE2,SEMIMAJOR_AXIS,PERIOD,APOGEE,PERIGEE,DECAYED
53712.0,STARLINK-4683,PAYLOAD,2024-03-03 20:22:41,15.08830323,0.0001369,53.2178,311.9881,97.7842,262.3305,-0.00011995,-2.196e-05,0.0,0 STARLINK-4683,1 53712U 22107N   24063.84908634 -.00002196  00000-0 -11995-3 0  9995,2 53712  53.2178 311.9881 0001369  97.7842 262.3305 15.08830323 83413,6917.91,95.438,540.722,538.828,0.0
53712.0,STARLINK-4683,PAYLOAD,2024-03-04 02:44:12,15.08844358,0.0001275,53.2166,310.7945,82.308,277.8057,1.6435e-06,-2.62e-06,0.0,0 STARLINK-4683,1 53712U 22107N   24064.11403483 -.00000262  00000-0  16435-5 0  9995,2 53712  53.2166 310.7945 0001275  82.3080 277.8057 15.08844358 82998,6917.867,95.437,540.614,538.85,0.0
53712.0,STARLINK-4683,PAYLOAD,2024-03-04 09:05:44,15.08846605,0.0001274,53.2167,309.6074,94.5857,265.5281,9.3957e-05,1.208e-05,0.0,0 STARLINK-4683,1 53712U 22107N   24064.37899058  .00001208  00000-0  93957-4 0  9993,2 53712  53.2167 309.6074 0001274  94.5857 265.5281 15.08846605 83491,6917.86,95.437,540.607,538.844,0.0
53712.0,STARLINK-4683,PAYLOAD,2024-03-04 20:13:27,15.08830293,0.000103,53.2164,307.5222,85.8397,274.2713,-1.6531e-05,-5.51e-06,0.0,0 STARLINK-4683,1 53712U 22107N   24064.84268515 -.00000551  00000-0 -16531-4 0  9998,2 53712  53.2164 307.5222 0001030  85.8397 274.2713 15.08830293 83103,6917.91,95.438,540.488,539.063,0.0
53712.0,STARLINK-4683,PAYLOAD,2024-03-04 21:48:49,15.08849336,0.0001979,53.217,307.2258,133.5108,226.6049,0.00014441,2.011e-05,0.0,0 STARLINK-4683,1 53712U 22107N   24064.90890736  .00002011  00000-0  14441-3 0  9999,2 53712  53.2170 307.2258 0001979 133.5108 226.6049 15.08849336 83571,6917.852,95.437,541.086,538.348,0.0
53712.0,STARLINK-4683,PAYLOAD,2024-03-04 23:24:12,15.08854813,0.0001042,53.2158,306.929,99.9506,260.1604,0.00013507,1.863e-05,0.0,0 STARLINK-4683,1 53712U 22107N   24064.97514571  .00001863  00000-0  13507-3 0  9992,2 53712  53.2158 306.9290 0001042  99.9506 260.1604 15.08854813 83124,6917.835,95.437,540.421,538.979,0.0
53712.0,STARLINK-4683,PAYLOAD,2024-03-05 21:39:38,15.08827376,0.0001248,53.2156,302.765,81.4913,278.6221,7.0872e-05,8.4e-06,0.0,0 STARLINK-4683,1 53712U 22107N   24065.90252519  .00000840  00000-0  70872-4 0  9990,2 53712  53.2156 302.7650 0001248  81.4913 278.6221 15.08827376 83260,6917.919,95.438,540.647,538.921,0.0
53712.0,STARLINK-4683,PAYLOAD,2024-03-05 23:15:01,15.08830175,0.0001283,53.2163,302.4682,84.9854,275.1284,9.0484e-05,1.152e-05,0.0,0 STARLINK-4683,1 53712U 22107N   24065.96876348  .00001152  00000-0  90484-4 0  9996,2 53712  53.2163 302.4682 0001283  84.9854 275.1284 15.08830175 83735,6917.91,95.438,540.663,538.888,0.0
53712.0,STARLINK-4683,PAYLOAD,2024-03-06 19:55:01,15.08834182,0.0001296,53.2168,298.6011,70.457,289.6562,0.00011655,1.567e-05,0.0,0 STARLINK-4683,1 53712U 22107N   24066.82988264  .00001567  00000-0  11655-3 0  9995,2 53712  53.2168 298.6011 0001296  70.4570 289.6562 15.08834182 83406,6917.898,95.438,540.66,538.867,0.0
53712.0,STARLINK-4683,PAYLOAD,2024-03-07 08:38:06,15.08849536,0.0001261,53.2166,296.2238,87.8994,272.2143,-2.0143e-05,-6.09e-06,0.0,0 STARLINK-4683,1 53712U 22107N   24067.35979568 -.00000609  00000-0 -20143-4 0  9992,2 53712  53.2166 296.2238 0001261  87.8994 272.2143 15.08849536 83944,6917.851,95.437,540.589,538.844,0.0
53712.0,STARLINK-4683,PAYLOAD,2024-03-08 00:31:58,15.0883673,0.0001529,53.2168,293.2501,89.7492,270.3675,9.6663e-05,1.251e-05,0.0,0 STARLINK-4683,1 53712U 22107N   24068.02220400  .00001251  00000-0  96663-4 0  9993,2 53712  53.2168 293.2501 0001529  89.7492 270.3675 15.08836730 83588,6917.89,95.438,540.813,538.698,0.0
53712.0,STARLINK-4683,PAYLOAD,2024-03-08 08:28:53,15.08839982,0.0001248,53.2167,291.7624,98.8523,261.2611,0.00014498,2.02e-05,0.0,0 STARLINK-4683,1 53712U 22107N   24068.35340071  .00002020  00000-0  14498-3 0  9996,2 53712  53.2167 291.7624 0001248  98.8523 261.2611 15.08839982 84098,6917.88,95.438,540.609,538.882,0.0
53712.0,STARLINK-4683,PAYLOAD,2024-03-08 21:11:59,15.08836342,0.0001692,53.2194,289.3833,102.9139,257.2042,0.00011098,1.478e-05,0.0,0 STARLINK-4683,1 53712U 22107N   24068.88332533  .00001478  00000-0  11098-3 0  9997,2 53712  53.2194 289.3833 0001692 102.9139 257.2042 15.08836342 84175,6917.892,95.438,540.927,538.586,0.0
53712.0,STARLINK-4683,PAYLOAD,2024-03-09 00:22:45,15.0883795,0.0001717,53.2187,288.7888,100.6109,259.5077,8.6011e-05,1.081e-05,0.0,0 STARLINK-4683,1 53712U 22107N   24069.01580565  .00001081  00000-0  86011-4 0  9991,2 53712  53.2187 288.7888 0001717 100.6109 259.5077 15.08837950 84191,6917.887,95.438,540.939,538.564,0.0
53712.0,STARLINK-4683,PAYLOAD,2024-03-10 00:13:32,15.08845491,0.0001595,53.2176,284.3283,91.0514,269.0661,0.00013087,1.796e-05,0.0,0 STARLINK-4683,1 53712U 22107N   24070.00939965  .00001796  00000-0  13087-3 0  9999,2 53712  53.2176 284.3283 0001595  91.0514 269.0661 15.08845491 83886,6917.864,95.437,540.832,538.625,0.0
53712.0,STARLINK-4683,PAYLOAD,2024-03-10 19:18:10,15.08829202,9.28e-05,53.2152,280.7569,121.8454,238.2628,0.00012047,1.63e-05,0.0,0 STARLINK-4683,1 53712U 22107N   24070.80428822  .00001630  00000-0  12047-3 0  9994,2 53712  53.2152 280.7569 0000928 121.8454 238.2628 15.08829202 84009,6917.913,95.438,540.42,539.136,0.0
53712.0,STARLINK-4683,PAYLOAD,2024-03-11 06:25:52,15.08840976,0.0001091,53.2168,278.6791,86.9198,273.1919,-2.5767e-05,-6.98e-06,0.0,0 STARLINK-4683,1 53712U 22107N   24071.26796645 -.00000698  00000-0 -25767-4 0  9995,2 53712  53.2168 278.6791 0001091  86.9198 273.1919 15.08840976 84076,6917.877,95.437,540.497,538.988,0.0
53712.0,STARLINK-4683,PAYLOAD,2024-03-11 22:19:43,15.08832565,0.0001375,53.2163,275.7059,81.8347,278.2801,8.3831e-05,1.046e-05,0.0,0 STARLINK-4683,1 53712U 22107N   24071.93036950  .00001046  00000-0  83831-4 0  9997,2 53712  53.2163 275.7059 0001375  81.8347 278.2801 15.08832565 84173,6917.903,95.438,540.719,538.817,0.0
53712.0,STARLINK-4683,PAYLOAD,2024-03-12 22:10:31,15.08832568,0.00014,53.2162,271.2451,79.7366,280.3784,4.2407e-05,3.87e-06,0.0,0 STARLINK-4683,1 53712U 22107N   24072.92397634  .00000387  00000-0  42407-4 0  9997,2 53712  53.2162 271.2451 0001400  79.7366 280.3784 15.08832568 84789,6917.903,95.438,540.737,538.8,0.0
53712.0,STARLINK-4683,PAYLOAD,2024-03-13 06:07:27,15.08833372,0.0001363,53.2158,269.7584,87.4514,272.6634,4.6518e-05,4.52e-06,0.0,0 STARLINK-4683,1 53712U 22107N   24073.25517670  .00000452  00000-0  46518-4 0  9998,2 53712  53.2158 269.7584 0001363  87.4514 272.6634 15.08833372 84379,6917.901,95.438,540.709,538.823,0.0
53712.0,STARLINK-4683,PAYLOAD,2024-03-14 12:19:45,15.08846466,0.000126,53.2156,264.108,86.1134,274.0002,6.9693e-05,8.22e-06,0.0,0 STARLINK-4683,1 53712U 22107N   24074.51372526  .00000822  00000-0  69693-4 0  9997,2 53712  53.2156 264.1080 0001260  86.1134 274.0002 15.08846466 84561,6917.861,95.437,540.597,538.854,0.0
53712.0,STARLINK-4683,PAYLOAD,2024-03-14 18:41:18,15.08844034,0.0001311,53.216,262.9183,87.4557,272.6585,7.0625e-05,8.36e-06,0.0,0 STARLINK-4683,1 53712U 22107N   24074.77868854  .00000836  00000-0  70625-4 0  9991,2 53712  53.2160 262.9183 0001311  87.4557 272.6585 15.08844034 85061,6917.868,95.437,540.64,538.826,0.0
53712.0,STARLINK-4683,PAYLOAD,2024-03-15 12:10:33,15.08843996,0.0001323,53.2159,259.6472,87.0482,273.0662,9.2834e-05,1.19e-05,0.0,0 STARLINK-4683,1 53712U 22107N   24075.50732954  .00001190  00000-0  92834-4 0  9994,2 53712  53.2159 259.6472 0001323  87.0482 273.0662 15.08843996 84717,6917.868,95.437,540.648,538.818,0.0
53712.0,STARLINK-4683,PAYLOAD,2024-03-16 18:22:52,15.08840594,0.0001076,53.2156,253.9969,89.1573,270.9543,2.7067e-05,1.43e-06,0.0,0 STARLINK-4683,1 53712U 22107N   24076.76589061  .00000143  00000-0  27067-4 0  9995,2 53712  53.2156 253.9969 0001076  89.1573 270.9543 15.08840594 84907,6917.879,95.438,540.488,538.999,0.0
53712.0,STARLINK-4683,PAYLOAD,2024-03-16 21:33:39,15.08841048,0.000106,53.2154,253.4019,88.6451,271.4663,2.8599e-05,1.67e-06,0.0,0 STARLINK-4683,1 53712U 22107N   24076.89837018  .00000167  00000-0  28599-4 0  9994,2 53712  53.2154 253.4019 0001060  88.6451 271.4663 15.08841048 85385,6917.877,95.437,540.475,539.009,0.0
53712.0,STARLINK-4683,PAYLOAD,2024-03-17 11:52:07,15.08835329,0.0001118,53.2154,250.7246,89.7275,270.3846,1.1845e-05,-9.9e-07,0.0,0 STARLINK-4683,1 53712U 22107N   24077.49453481 -.00000099  00000-0  11845-4 0  9990,2 53712  53.2154 250.7246 0001118  89.7275 270.3846 15.08835329 85473,6917.895,95.438,540.533,538.986,0.0
53712.0,STARLINK-4683,PAYLOAD,2024-03-17 18:13:40,15.08837533,0.0001163,53.2156,249.5351,92.5547,267.5578,2.3753e-05,9e-07,0.0,0 STARLINK-4683,1 53712U 22107N   24077.75949301  .00000090  00000-0  23753-4 0  9991,2 53712  53.2156 249.5351 0001163  92.5547 267.5578 15.08837533 85516,6917.888,95.438,540.557,538.948,0.0
53712.0,STARLINK-4683,PAYLOAD,2024-03-18 11:42:54,15.08835334,0.000119,53.2159,246.263,91.8646,268.2483,6.5753e-05,7.59e-06,0.0,0 STARLINK-4683,1 53712U 22107N   24078.48813404  .00000759  00000-0  65753-4 0  9994,2 53712  53.2159 246.2630 0001190  91.8646 268.2483 15.08835334 85166,6917.895,95.438,540.583,538.936,0.0
53712.0,STARLINK-4683,PAYLOAD,2024-03-19 09:58:18,15.08839461,0.0001185,53.216,242.1009,94.9018,265.211,0.00010038,1.31e-05,0.0,0 STARLINK-4683,1 53712U 22107N   24079.41549297  .00001310  00000-0  10038-3 0  9993,2 53712  53.2160 242.1009 0001185  94.9018 265.2110 15.08839461 85769,6917.882,95.438,540.567,538.927,0.0
53712.0,STARLINK-4683,PAYLOAD,2024-03-20 17:46:02,15.08834737,0.0001282,53.216,236.1573,96.2715,263.8423,-1.9638e-05,-6e-06,0.0,0 STARLINK-4683,1 53712U 22107N   24080.74030104 -.00000600  00000-0 -19638-4 0  9992,2 53712  53.2160 236.1573 0001282  96.2715 263.8423 15.08834737 85509,6917.896,95.438,540.648,538.875,0.0
